NORAD_CAT_ID,OBJECT_NAME,OBJECT_TYPE,EPOCH,MEAN_MOTION,ECCENTRICITY,INCLINATION,RA_OF_ASC_NODE,ARG_OF_PERICENTER,MEAN_ANOMALY,BSTAR,MEAN_MOTION_DOT,MEAN_MOTION_DDOT,TLE_LINE0,TLE_LINE1,TLE_LINE2,SEMIMAJOR_AXIS,PERIOD,APOGEE,PERIGEE,DECAYED
52993.0,STARLINK-4264,PAYLOAD,2024-04-30 16:05:51,15.08854849,0.0001284,53.2166,257.8654,85.6841,274.4297,8.3509e-06,-1.55e-06,0.0,0 STARLINK-4264,1 52993U 22076H   24121.67073375 -.00000155  00000-0  83509-5 0  9995,2 52993  53.2166 257.8654 0001284  85.6841 274.4297 15.08854849100959,6917.835,95.437,540.588,538.812,0.0
52993.0,STARLINK-4264,PAYLOAD,2024-05-01 01:38:10,15.08845259,0.000138,53.2159,256.0842,89.4263,270.6887,-6.9409e-05,-1.393e-05,0.0,0 STARLINK-4264,1 52993U 22076H   24122.06817519 -.00001393  00000-0 -69409-4 0  9993,2 52993  53.2159 256.0842 0001380  89.4263 270.6887 15.08845259101014,6917.864,95.437,540.684,538.775,0.0
52993.0,STARLINK-4264,PAYLOAD,2024-05-01 17:32:01,15.0884627,0.0001393,53.2169,253.108,80.9973,279.1177,9.2956e-05,1.192e-05,0.0,0 STARLINK-4264,1 52993U 22076H   24122.73057577  .00001192  00000-0  92956-4 0  9995,2 52993  53.2169 253.1080 0001393  80.9973 279.1177 15.08846270100643,6917.861,95.437,540.69,538.763,0.0
52993.0,STARLINK-4264,PAYLOAD,2024-05-02 12:36:40,15.08833873,0.000185,53.2181,249.5414,85.6586,274.4617,-4.1066e-05,-9.42e-06,0.0,0 STARLINK-4264,1 52993U 22076H   24123.52546853 -.00000942  00000-0 -41066-4 0  9993,2 52993  53.2181 249.5414 0001850  85.6586 274.4617 15.08833873101235,6917.899,95.438,541.044,538.484,0.0
52993.0,STARLINK-4264,PAYLOAD,2024-05-02 14:12:03,15.0883091,0.0001364,53.2161,249.2442,87.2653,272.8495,-3.8492e-05,-9e-06,0.0,0 STARLINK-4264,1 52993U 22076H   24123.59170905 -.00000900  00000-0 -38492-4 0  9994,2 52993  53.2161 249.2442 0001364  87.2653 272.8495 15.08830910100777,6917.908,95.438,540.717,538.83,0.0
52993.0,STARLINK-4264,PAYLOAD,2024-05-03 12:27:26,15.08846373,0.000148,53.2175,245.0812,90.1999,269.9163,0.00011736,1.581e-05,0.0,0 STARLINK-4264,1 52993U 22076H   24124.51905696  .00001581  00000-0  11736-3 0  9995,2 52993  53.2175 245.0812 0001480  90.1999 269.9163 15.08846373101389,6917.861,95.437,540.75,538.702,0.0
52993.0,STARLINK-4264,PAYLOAD,2024-05-03 14:02:49,15.08850462,0.0001435,53.2165,244.7836,87.2551,272.8606,1.7301e-05,-1.3e-07,0.0,0 STARLINK-4264,1 52993U 22076H   24124.58529533 -.00000013  00000-0  17301-4 0  9999,2 52993  53.2165 244.7836 0001435  87.2551 272.8606 15.08850462100929,6917.848,95.437,540.706,538.721,0.0
52993.0,STARLINK-4264,PAYLOAD,2024-05-03 15:38:12,15.08851529,0.0001475,53.2165,244.484,77.2475,282.8682,0.00025284,3.74e-05,0.0,0 STARLINK-4264,1 52993U 22076H   24124.65153408  .00003740  00000-0  25284-3 0  9998,2 52993  53.2165 244.4840 0001475  77.2475 282.8682 15.08851529100930,6917.845,95.437,540.731,538.69,0.0
52993.0,STARLINK-4264,PAYLOAD,2024-05-04 01:10:31,15.08839135,0.0001407,53.2169,242.7006,87.364,272.7513,6.6566e-05,7.72e-06,0.0,0 STARLINK-4264,1 52993U 22076H   24125.04898022  .00000772  00000-0  66566-4 0  9991,2 52993  53.2169 242.7006 0001407  87.3640 272.7513 15.08839135101469,6917.883,95.438,540.721,538.775,0.0
52993.0,STARLINK-4264,PAYLOAD,2024-05-04 13:53:37,15.08826109,0.0001295,53.2166,240.323,90.4998,269.6142,2.2215e-05,6.6e-07,0.0,0 STARLINK-4264,1 52993U 22076H   24125.57891129  .00000066  00000-0  22215-4 0  9999,2 52993  53.2166 240.3230 0001295  90.4998 269.6142 15.08826109101544,6917.923,95.438,540.684,538.892,0.0
52993.0,STARLINK-4264,PAYLOAD,2024-05-05 01:01:19,15.08839857,0.000137,53.2162,238.2414,91.6403,268.4746,0.00013991,1.939e-05,0.0,0 STARLINK-4264,1 52993U 22076H   24126.04258675  .00001939  00000-0  13991-3 0  9995,2 52993  53.2162 238.2414 0001370  91.6403 268.4746 15.08839857101617,6917.881,95.438,540.694,538.798,0.0
52993.0,STARLINK-4264,PAYLOAD,2024-05-05 13:44:24,15.08857892,0.0001357,53.2163,235.8612,93.3818,266.7329,0.00047449,7.275e-05,0.0,0 STARLINK-4264,1 52993U 22076H   24126.57250013  .00007275  00000-0  47449-3 0  9995,2 52993  53.2163 235.8612 0001357  93.3818 266.7329 15.08857892101229,6917.826,95.436,540.629,538.752,0.0
52993.0,STARLINK-4264,PAYLOAD,2024-05-06 00:52:06,15.0884507,0.0001417,53.216,233.7807,88.2431,271.8724,0.0003572,5.402e-05,0.0,0 STARLINK-4264,1 52993U 22076H   24127.03618630  .00005402  00000-0  35720-3 0  9999,2 52993  53.2160 233.7807 0001417  88.2431 271.8724 15.08845070101760,6917.865,95.437,540.71,538.75,0.0
52993.0,STARLINK-4264,PAYLOAD,2024-05-06 13:35:11,15.08840173,0.0001323,53.2166,231.4013,100.7777,259.3364,0.00025349,3.749e-05,0.0,0 STARLINK-4264,1 52993U 22076H   24127.56610964  .00003749  00000-0  25349-3 0  9997,2 52993  53.2166 231.4013 0001323 100.7777 259.3364 15.08840173101848,6917.88,95.438,540.66,538.83,0.0
52993.0,STARLINK-4264,PAYLOAD,2024-05-07 13:25:58,15.08871372,0.0001197,53.2172,226.9421,96.9259,263.187,0.0013308,0.00020973,0.0,0 STARLINK-4264,1 52993U 22076H   24128.55970401  .00020973  00000-0  13308-2 0  9991,2 52993  53.2172 226.9421 0001197  96.9259 263.1870 15.08871372101993,6917.784,95.436,540.478,538.821,0.0
52993.0,STARLINK-4264,PAYLOAD,2024-05-07 16:36:44,15.08877829,0.0001156,53.2169,226.3478,93.6093,266.5032,0.0013432,0.00021176,0.0,0 STARLINK-4264,1 52993U 22076H   24128.69218074  .00021176  00000-0  13432-2 0  9991,2 52993  53.2169 226.3478 0001156  93.6093 266.5032 15.08877829101541,6917.765,95.435,540.429,538.83,0.0
52993.0,STARLINK-4264,PAYLOAD,2024-05-08 13:16:45,15.08845878,0.000134,53.2167,222.4819,93.8675,266.2471,0.0003237,4.868e-05,0.0,0 STARLINK-4264,1 52993U 22076H   24129.55330527  .00004868  00000-0  32370-3 0  9997,2 52993  53.2167 222.4819 0001340  93.8675 266.2471 15.08845878102148,6917.862,95.437,540.654,538.8,0.0
52993.0,STARLINK-4264,PAYLOAD,2024-05-09 13:07:32,15.08860422,0.0001356,53.2156,218.0217,95.1008,265.0139,0.00078775,0.00012278,0.0,0 STARLINK-4264,1 52993U 22076H   24130.54690126  .00012278  00000-0  78775-3 0  9995,2 52993  53.2156 218.0217 0001356  95.1008 265.0139 15.08860422101825,6917.818,95.436,540.621,538.745,0.0
52993.0,STARLINK-4264,PAYLOAD,2024-05-10 12:58:19,15.08842324,0.0001089,53.2143,213.5619,98.1602,261.9514,0.0003903,5.93e-05,0.0,0 STARLINK-4264,1 52993U 22076H   24131.54050550  .00005930  00000-0  39030-3 0  9995,2 52993  53.2143 213.5619 0001089  98.1602 261.9514 15.08842324102445,6917.873,95.437,540.492,538.985,0.0
52993.0,STARLINK-4264,PAYLOAD,2024-05-10 14:33:42,15.08842216,0.0001077,53.2143,213.2645,97.2187,262.8927,0.00041968,6.398e-05,0.0,0 STARLINK-4264,1 52993U 22076H   24131.60674572  .00006398  00000-0  41968-3 0  9990,2 52993  53.2143 213.2645 0001077  97.2187 262.8927 15.08842216101982,6917.874,95.437,540.484,538.994,0.0
52993.0,STARLINK-4264,PAYLOAD,2024-05-11 12:49:04,15.08967203,0.0001462,53.2151,209.0963,83.8926,276.2233,0.0055067,0.00088766,0.0,0 STARLINK-4264,1 52993U 22076H   24132.53407890  .00088766  00000-0  55067-2 0  9993,2 52993  53.2151 209.0963 0001462  83.8926 276.2233 15.08967203102598,6917.492,95.43,540.368,538.345,0.0
52993.0,STARLINK-4264,PAYLOAD,2024-05-11 22:21:25,15.08771676,0.0002412,53.2137,207.3179,83.0132,277.1134,-0.0036018,-0.00057054,0.0,0 STARLINK-4264,1 52993U 22076H   24132.93154954 -.00057054  00000-0 -36018-2 0  9990,2 52993  53.2137 207.3179 0002412  83.0132 277.1134 15.08771676102181,6918.089,95.442,541.623,538.286,0.0
52993.0,STARLINK-4264,PAYLOAD,2024-05-12 11:04:36,15.08647162,0.0001353,53.2142,204.9394,109.5297,250.5841,0.00031483,4.7e-05,0.0,0 STARLINK-4264,1 52993U 22076H   24133.46153631  .00004700  00000-0  31483-3 0  9990,2 52993  53.2142 204.9394 0001353 109.5297 250.5841 15.08647162102731,6918.47,95.45,541.271,539.399,0.0
52993.0,STARLINK-4264,PAYLOAD,2024-05-12 22:12:21,15.08723059,0.0001719,53.216,202.8571,124.3502,235.7653,0.0025784,0.00040854,0.0,0 STARLINK-4264,1 52993U 22076H   24133.92525400  .00040854  00000-0  25784-2 0  9994,2 52993  53.2160 202.8571 0001719 124.3502 235.7653 15.08723059102337,6918.238,95.445,541.292,538.914,0.0
52993.0,STARLINK-4264,PAYLOAD,2024-05-13 04:33:54,15.08835176,0.000192,53.2151,201.6631,139.0657,221.0479,0.0047346,0.00075866,0.0,0 STARLINK-4264,1 52993U 22076H   24134.19021373  .00075866  00000-0  47346-2 0  9993,2 52993  53.2151 201.6631 0001920 139.0657 221.0479 15.08835176102843,6917.895,95.438,541.088,538.432,0.0
52993.0,STARLINK-4264,PAYLOAD,2024-05-13 10:55:26,15.0887985,0.0001365,53.2156,200.477,132.298,227.8128,0.0021069,0.00033439,0.0,0 STARLINK-4264,1 52993U 22076H   24134.45516418  .00033439  00000-0  21069-2 0  9995,2 52993  53.2156 200.4770 0001365 132.2980 227.8128 15.08879850102411,6917.759,95.435,540.568,538.679,0.0
52993.0,STARLINK-4264,PAYLOAD,2024-05-14 10:46:12,15.0887231,0.0001269,53.2145,196.0164,119.8914,240.2205,0.00078656,0.00012263,0.0,0 STARLINK-4264,1 52993U 22076H   24135.44875238  .00012263  00000-0  78656-3 0  9990,2 52993  53.2145 196.0164 0001269 119.8914 240.2205 15.08872310103035,6917.782,95.436,540.524,538.769,0.0
52993.0,STARLINK-4264,PAYLOAD,2024-05-15 04:15:24,15.08907008,0.00013,53.2156,192.7464,120.5845,239.5276,0.0013016,0.00020526,0.0,0 STARLINK-4264,1 52993U 22076H   24136.17736665  .00020526  00000-0  13016-2 0  9990,2 52993  53.2156 192.7464 0001300 120.5845 239.5276 15.08907008103145,6917.676,95.433,540.44,538.641,0.0
52993.0,STARLINK-4264,PAYLOAD,2024-05-15 10:36:55,15.08928199,0.0001297,53.2159,191.5563,118.6736,241.4386,0.0020108,0.00031937,0.0,0 STARLINK-4264,1 52993U 22076H   24136.44231265  .00031937  00000-0  20108-2 0  9994,2 52993  53.2159 191.5563 0001297 118.6736 241.4386 15.08928199102717,6917.611,95.432,540.373,538.579,0.0
52993.0,STARLINK-4264,PAYLOAD,2024-05-16 12:03:02,15.08913098,0.0001272,53.2158,186.7968,110.308,249.8049,0.00089843,0.00014068,0.0,0 STARLINK-4264,1 52993U 22076H   24137.50211352  .00014068  00000-0  89843-3 0  9995,2 52993  53.2158 186.7968 0001272 110.3080 249.8049 15.08913098103345,6917.657,95.433,540.402,538.642,0.0
